STARLINK-1559           
1 46077U 20055BC  26068.23360559  .00042685  00000+0  14779-2 0  9995
2 46077  53.0254  76.0659 0004229  33.9710 326.1559 15.29461733309518
STARLINK-35420          
1 66260U 25245AC  26068.86467733  .00023998  00000+0  81961-3 0  9992
2 66260  53.1580 283.0536 0000690 117.2010 242.9061 15.30205280 21281
